CAS-2T & KS-1Q          
1 41847U 16066G   20164.75336928  .00000056  00000-0  19675-4 0  9992
2 41847  98.6540 215.2220 0364615 242.8642 113.4929 14.38069753188748
NAYIF-1 (EO-88)         
1 42017U 17008BX  20164.69831344  .00001238  00000-0  50196-4 0  9990
2 42017  97.3599 232.3299 0005771 355.6730   4.4458 15.26492092184825
MAX VALIER SAT          
1 42778U 17036P   20165.39921880  .00000781  00000-0  36474-4 0  9993
2 42778  97.3049 219.1473 0013326  43.4671 316.7614 15.22618203165111
RADFXSAT (FOX-1B)       
1 43017U 17073E   20165.33040709  .00000651  00000-0  55251-4 0  9997
2 43017  97.7232  77.7251 0258439  63.9374 298.8195 14.78933819138556
FOX-1D (AO-92)          
1 43137U 18004AC  20164.88839595  .00000861  00000-0  38329-4 0  9993
2 43137  97.4457 236.0802 0010818  75.2003 285.0432 15.24119884134355
DIWATA-2B               
1 43678U 18084H   20165.44932778  .00000275  00000-0  33130-4 0  9995
2 43678  97.8838 283.8524 0009752 182.1854 177.9301 14.91636046 88427
ES'HAIL 2               
1 43700U 18090A   20165.03796257  .00000143  00000-0  00000+0 0  9992
2 43700   0.0103  45.1241 0001427  61.6014 194.5272  1.00273135  5905
FOX-1CLIFF (AO-95)      
1 43770U 18099N   20164.89027759  .00000496  00000-0  50528-4 0  9991
2 43770  97.7059 236.3504 0013836 206.6002 153.4510 14.94989903 83231
ITASAT 1                
1 43786U 18099AE  20164.75440530  .00000580  00000-0  57777-4 0  9996
2 43786  97.7075 236.6331 0014633 200.6032 159.4601 14.95329003 83237
JY1SAT (JO-97)          
1 43803U 18099AX  20165.17093638 -.00000049  00000-0  81288-6 0  9993
2 43803  97.7034 236.8625 0014588 199.9017 160.1637 14.95506128 83291
PSAT2 (NO-104)          
1 44354U 19036R   20164.80881736  .00004665  00000-0  64051-4 0  9994
2 44354  28.5341  51.0977 0364389 261.4451  94.4694 15.03433868 53117
BRICSAT2 (NO-103)       
1 44355U 19036S   20165.03167124  .00008745  00000-0  11902-3 0  9998
2 44355  28.5340  41.1950 0343469 277.5620  78.6090 15.08729853 53234
JAISAT-1                
1 44419U 19038F   20165.38815063  .00000652  00000-0  40691-4 0  9998
2 44419  97.5383 127.0314 0022577 141.0790 219.2071 15.12777283 51980
DUCHIFAT-3              
1 44854U 19089C   20165.56460205  .00000257  00000-0  27215-4 0  9999
2 44854  36.9649 121.3317 0008298  24.0222 336.0906 14.99066615 27712
RS-44 & BREEZE-KM R/B   
1 44909U 19096E   20164.82359590  .00000016  00000-0  24530-4 0  9990
2 44909  82.5214 358.3918 0216452 237.1933 120.8157 12.79707826 21595
ORBITAL FACTORY 2 (OF-2)
1 45113U 19071C   20164.79158286  .00001313  00000-0  51676-4 0  9998
2 45113  51.6454  26.0687 0013459  43.1477 317.0557 15.33341849 20414
HUSKYSAT-1              
1 45119U 19071J   20164.90097546  .00001341  00000-0  52173-4 0  9992
2 45119  51.6452  25.2998 0012737  40.1449 320.0472 15.33559845 20426
